window._tle = "PEGASUS\n1 42784U 17036V   21217.40148361  .00001766  00000-0  74227-4 0  9998\n2 42784  97.2471 264.9036 0011622  15.9164 344.2437 15.24642751228810";
